IRIDIUM 150             
1 43257U 18030J   23323.52899284  .00000162  00000+0  50635-4 0  9994
2 43257  86.3941 323.6067 0002431  97.9607 262.1865 14.34218780295339
IRIDIUM 143             
1 43258U 18030K   23323.50994815  .00000196  00000+0  63012-4 0  9999
2 43258  86.3945 323.6698 0002493  89.5766 270.5716 14.34217980295266
IRIDIUM 161             
1 43478U 18047C   23323.48811102  .00000152  00000+0  39202-4 0  9991
2 43478  86.4465 121.6537 0002062  92.8558 267.2878 14.43273055289455
IRIDIUM 152             
1 43479U 18047D   23323.48267174  .00000111  00000+0  32402-4 0  9996
2 43479  86.3938 121.5156 0002250  87.3947 272.7506 14.34218971287651
IRIDIUM 147             
1 43480U 18047E   23323.48900520  .00000115  00000+0  33961-4 0  9992
2 43480  86.3940 121.5017 0001831  94.5598 265.5807 14.34218166287658
IRIDIUM 110             
1 43481U 18047F   23323.49534999  .00000111  00000+0  32633-4 0  9998
2 43481  86.3942 121.5663 0001829  97.9086 262.2317 14.34217568287648
IRIDIUM 162             
1 43482U 18047G   23323.48181074  .00000155  00000+0  40114-4 0  9991
2 43482  86.4465 121.5592 0002064  93.6465 266.4972 14.43272595289441
IRIDIUM 160             
1 43569U 18061A   23323.44119506  .00000351  00000+0  11830-3 0  9990
2 43569  86.3952  89.9445 0001971  85.0797 275.0624 14.34218703278539
